STARLINK-37765          
1 69337U 26122J   26168.46505229  .00173309  00000+0  88496-3 0  9997
2 69337  97.2831 197.9595 0000698 154.2760 205.8543 15.80883152  2205
STARLINK-37788          
1 69338U 26122K   26168.50003471 -.02500926  00000+0 -23962-1 0  9993
2 69338  97.2839 197.9796 0001864  94.4600  69.3045 15.69886619  3402
STARLINK-37743          
1 69339U 26122L   26168.21352624 -.00290758  00000+0 -15880-2 0  9997
2 69339  97.2830 197.6889 0002269 333.0437  27.0713 15.80537044  2167
STARLINK-37780          
1 69340U 26122M   26168.46572678  .00264237  00000+0  13342-2 0  9991
2 69340  97.2830 197.9587 0001581  55.4710 304.6707 15.80892940  2203
STARLINK-37781          
1 69341U 26122N   26168.50003471 -.02479281  00000+0 -23499-1 0  9991
2 69341  97.2840 197.9715 0001829  85.6389  60.4337 15.70115855  3401
STARLINK-37782          
1 69342U 26122P   26168.50003471 -.00032912  00000+0 -17250-3 0  9996
2 69342  97.2843 198.0147 0001131 110.3792 131.1701 15.80718354  3401
STARLINK-37776          
1 69343U 26122Q   26168.50003471  .00291102  00000+0  14741-2 0  9994
2 69343  97.2847 198.0177 0001254 105.2069 141.6855 15.80760088  3402
STARLINK-37786          
1 69344U 26122R   26168.50003471 -.02437394  00000+0 -18505-1 0  9995
2 69344  97.2852 198.0183 0001620 109.8846 142.1197 15.75814775  3408
STARLINK-37785          
1 69345U 26122S   26168.50003471 -.00065661  00000+0 -34427-3 0  9991
2 69345  97.2846 198.0233 0000866 106.5981 156.4561 15.80840069  3407
STARLINK-37773          
1 69346U 26122T   26168.45500613  .00117476  00000+0  60525-3 0  9994
2 69346  97.2845 197.9734 0001142  80.6640 279.4757 15.80836933  2208
STARLINK-37744          
1 69347U 26122U   26168.50003471 -.02478122  00000+0 -25780-1 0  9995
2 69347  97.2842 198.0000 0001763 102.9165 106.6225 15.67866988  3405
STARLINK-37775          
1 69348U 26122V   26168.50003471 -.02319052  00000+0 -13707-1 0  9998
2 69348  97.2842 198.0198 0001080 126.3372 127.6200 15.81166948  3407
STARLINK-37777          
1 69349U 26122W   26168.45526685  .00152459  00000+0  78109-3 0  9991
2 69349  97.2839 197.9738 0000794  96.1785 263.9574 15.80865723  2206
STARLINK-37779          
1 69350U 26122X   26168.45405337  .00120922  00000+0  62240-3 0  9992
2 69350  97.2843 197.9755 0000787  62.0460 298.0888 15.80848922  2205
STARLINK-37549          
1 69351U 26122Y   26168.50003471 -.02461637  00000+0 -20089-1 0  9990
2 69351  97.2838 198.0097 0001818 105.4924 126.3787 15.74205246  3407
STARLINK-37778          
1 69352U 26122Z   26168.50003471 -.02421473  00000+0 -18097-1 0  9991
2 69352  97.2842 198.0226 0001468  98.3575 163.4840 15.76147453  3409
STARLINK-37651          
1 69353U 26123A   26168.42499220  .00155748  00000+0  77702-3 0  9990
2 69353  53.1580 240.6164 0001017  99.8256 260.2882 15.80913736  2071
STARLINK-37652          
1 69354U 26123B   26168.42613227  .00197873  00000+0  98237-3 0  9997
2 69354  53.1579 240.6249 0001012  78.8630 281.2506 15.80892516  2070
STARLINK-37593          
1 69355U 26123C   26168.42526318  .00090456  00000+0  45670-3 0  9994
2 69355  53.1576 240.6173 0001284  62.5072 297.6081 15.80889343  2078
STARLINK-37597          
1 69356U 26123D   26168.48685378  .00194861  00000+0  96648-3 0  9999
2 69356  53.1579 240.2903 0001051 101.3425 258.7715 15.80922497  2086
STARLINK-37598          
1 69357U 26123E   26168.48475441  .00161895  00000+0  80674-3 0  9991
2 69357  53.1581 240.2751 0000869  76.4178 283.6942 15.80919968  2082
STARLINK-37602          
1 69358U 26123F   26168.50003471 -.00032290  00000+0 -20716-3 0  9994
2 69358  53.1585 240.2805 0001196  67.5477 340.5590 15.75250372  3257
STARLINK-37600          
1 69359U 26123G   26168.50003471 -.00037060  00000+0 -23856-3 0  9993
2 69359  53.1584 240.2312 0001156  87.4333 344.5974 15.75247079  3258
STARLINK-37599          
1 69360U 26123H   26168.50003471 -.00004265  00000+0 -18076-4 0  9995
2 69360  53.1571 240.0781 0001117  81.3239  64.8665 15.80876510  3207
STARLINK-37039          
1 69361U 26123J   26168.47930808  .00203214  00000+0  10066-2 0  9997
2 69361  53.1581 240.2374 0001002  98.9402 261.1734 15.80926389  2082
STARLINK-37040          
1 69362U 26123K   26168.50003471 -.00075089  00000+0 -37939-3 0  9997
2 69362  53.1583 239.9082 0000975  62.4734 165.5267 15.80919260  3201
STARLINK-37582          
1 69363U 26123L   26168.50003471 -.00198577  00000+0 -13131-2 0  9993
2 69363  53.1589 240.1237 0001431  88.3350  35.1918 15.75388005  3209
STARLINK-37309          
1 69364U 26123M   26168.50003471  .00032429  00000+0  16729-3 0  9992
2 69364  53.1585 239.7882 0001031  75.0167 211.0294 15.80864341  3346
STARLINK-37436          
1 69365U 26123N   26168.50003471  .00023025  00000+0  11990-3 0  9990
2 69365  53.1585 239.7517 0000905  81.0967 222.5428 15.80869258  3344
STARLINK-37581          
1 69366U 26123P   26168.50003471 -.00055792  00000+0 -28056-3 0  9990
2 69366  53.1580 239.7960 0001241  71.5253 210.7055 15.80901919  3197
