OBJECT_NAME,OBJECT_ID,EPOCH,MEAN_MOTION,ECCENTRICITY,INCLINATION,RA_OF_ASC_NODE,ARG_OF_PERICENTER,MEAN_ANOMALY,EPHEMERIS_TYPE,CLASSIFICATION_TYPE,NORAD_CAT_ID,ELEMENT_SET_NO,REV_AT_EPOCH,BSTAR,MEAN_MOTION_DOT,MEAN_MOTION_DDOT
STARLINK-37765,2026-122J,2026-06-17T11:09:40.517856,15.80883152,.0000698,97.2831,197.9595,154.2760,205.8543,0,U,69337,999,220,.88496E-3,.173309E-2,0
STARLINK-37788,2026-122K,2026-06-17T12:00:02.998944,15.69886619,.0001864,97.2839,197.9796,94.4600,69.3045,0,U,69338,999,340,-.23962E-1,-.2500926E-1,0
STARLINK-37743,2026-122L,2026-06-17T05:07:28.667136,15.80537044,.0002269,97.2830,197.6889,333.0437,27.0713,0,U,69339,999,216,-.1588E-2,-.290758E-2,0
STARLINK-37780,2026-122M,2026-06-17T11:10:38.793792,15.80892940,.0001581,97.2830,197.9587,55.4710,304.6707,0,U,69340,999,220,.13342E-2,.264237E-2,0
STARLINK-37781,2026-122N,2026-06-17T12:00:02.998944,15.70115855,.0001829,97.2840,197.9715,85.6389,60.4337,0,U,69341,999,340,-.23499E-1,-.2479281E-1,0
STARLINK-37782,2026-122P,2026-06-17T12:00:02.998944,15.80718354,.0001131,97.2843,198.0147,110.3792,131.1701,0,U,69342,999,340,-.1725E-3,-.32912E-3,0
STARLINK-37776,2026-122Q,2026-06-17T12:00:02.998944,15.80760088,.0001254,97.2847,198.0177,105.2069,141.6855,0,U,69343,999,340,.14741E-2,.291102E-2,0
STARLINK-37786,2026-122R,2026-06-17T12:00:02.998944,15.75814775,.000162,97.2852,198.0183,109.8846,142.1197,0,U,69344,999,340,-.18505E-1,-.2437394E-1,0
STARLINK-37785,2026-122S,2026-06-17T12:00:02.998944,15.80840069,.0000866,97.2846,198.0233,106.5981,156.4561,0,U,69345,999,340,-.34427E-3,-.65661E-3,0
STARLINK-37773,2026-122T,2026-06-17T10:55:12.529632,15.80836933,.0001142,97.2845,197.9734,80.6640,279.4757,0,U,69346,999,220,.60525E-3,.117476E-2,0
STARLINK-37744,2026-122U,2026-06-17T12:00:02.998944,15.67866988,.0001763,97.2842,198.0000,102.9165,106.6225,0,U,69347,999,340,-.2578E-1,-.2478122E-1,0
STARLINK-37775,2026-122V,2026-06-17T12:00:02.998944,15.81166948,.000108,97.2842,198.0198,126.3372,127.6200,0,U,69348,999,340,-.13707E-1,-.2319052E-1,0
STARLINK-37777,2026-122W,2026-06-17T10:55:35.055840,15.80865723,.0000794,97.2839,197.9738,96.1785,263.9574,0,U,69349,999,220,.78109E-3,.152459E-2,0
STARLINK-37779,2026-122X,2026-06-17T10:53:50.211168,15.80848922,.0000787,97.2843,197.9755,62.0460,298.0888,0,U,69350,999,220,.6224E-3,.120922E-2,0
STARLINK-37549,2026-122Y,2026-06-17T12:00:02.998944,15.74205246,.0001818,97.2838,198.0097,105.4924,126.3787,0,U,69351,999,340,-.20089E-1,-.2461637E-1,0
STARLINK-37778,2026-122Z,2026-06-17T12:00:02.998944,15.76147453,.0001468,97.2842,198.0226,98.3575,163.4840,0,U,69352,999,340,-.18097E-1,-.2421473E-1,0
STARLINK-37651,2026-123A,2026-06-17T10:11:59.326080,15.80913736,.0001017,53.1580,240.6164,99.8256,260.2882,0,U,69353,999,207,.77702E-3,.155748E-2,0
STARLINK-37652,2026-123B,2026-06-17T10:13:37.828128,15.80892516,.0001012,53.1579,240.6249,78.8630,281.2506,0,U,69354,999,207,.98237E-3,.197873E-2,0
STARLINK-37593,2026-123C,2026-06-17T10:12:22.738752,15.80889343,.0001284,53.1576,240.6173,62.5072,297.6081,0,U,69355,999,207,.4567E-3,.90456E-3,0
STARLINK-37597,2026-123D,2026-06-17T11:41:04.166592,15.80922497,.0001051,53.1579,240.2903,101.3425,258.7715,0,U,69356,999,208,.96648E-3,.194861E-2,0
STARLINK-37598,2026-123E,2026-06-17T11:38:02.781024,15.80919968,.0000869,53.1581,240.2751,76.4178,283.6942,0,U,69357,999,208,.80674E-3,.161895E-2,0
STARLINK-37602,2026-123F,2026-06-17T12:00:02.998944,15.75250372,.0001196,53.1585,240.2805,67.5477,340.5590,0,U,69358,999,325,-.20716E-3,-.3229E-3,0
STARLINK-37600,2026-123G,2026-06-17T12:00:02.998944,15.75247079,.0001156,53.1584,240.2312,87.4333,344.5974,0,U,69359,999,325,-.23856E-3,-.3706E-3,0
STARLINK-37599,2026-123H,2026-06-17T12:00:02.998944,15.80876510,.0001117,53.1571,240.0781,81.3239,64.8665,0,U,69360,999,320,-.18076E-4,-.4265E-4,0
STARLINK-37039,2026-123J,2026-06-17T11:30:12.218112,15.80926389,.0001002,53.1581,240.2374,98.9402,261.1734,0,U,69361,999,208,.10066E-2,.203214E-2,0
STARLINK-37040,2026-123K,2026-06-17T12:00:02.998944,15.80919260,.0000975,53.1583,239.9082,62.4734,165.5267,0,U,69362,999,320,-.37939E-3,-.75089E-3,0
STARLINK-37582,2026-123L,2026-06-17T12:00:02.998944,15.75388005,.0001431,53.1589,240.1237,88.3350,35.1918,0,U,69363,999,320,-.13131E-2,-.198577E-2,0
STARLINK-37309,2026-123M,2026-06-17T12:00:02.998944,15.80864341,.0001031,53.1585,239.7882,75.0167,211.0294,0,U,69364,999,334,.16729E-3,.32429E-3,0
STARLINK-37436,2026-123N,2026-06-17T12:00:02.998944,15.80869258,.0000905,53.1585,239.7517,81.0967,222.5428,0,U,69365,999,334,.1199E-3,.23025E-3,0
STARLINK-37581,2026-123P,2026-06-17T12:00:02.998944,15.80901919,.0001241,53.1580,239.7960,71.5253,210.7055,0,U,69366,999,319,-.28056E-3,-.55792E-3,0
